WGS 10 (USA 291)        
1 44071U 19014A   26062.65167030  .00000033  00000+0  00000+0 0  9999
2 44071   0.0207 128.2693 0000500 227.7066 100.3194  1.00271796 25551
TIANLIAN 2-01           
1 44076U 19017A   26062.81570194 -.00000120  00000+0  00000+0 0  9992
2 44076   0.2681  82.2729 0003375 220.5381 229.4138  1.00271547 25596
ARABSAT-6A              
1 44186U 19021A   26062.36572473  .00000000  00000+0  00000+0 0  9997
2 44186   0.0169  13.1563 0003066 320.7917 349.3814  1.00279906 25096
BEIDOU-3 IGSO-1         
1 44204U 19023A   26062.82416976 -.00000206  00000+0  00000+0 0  9995
2 44204  58.5529  38.7313 0026008 236.5299 302.2113  1.00271041  6157
BEIDOU-2 G8             
1 44231U 19027A   26062.40122155 -.00000262  00000+0  00000+0 0  9998
2 44231   1.8655  74.7300 0009271 269.3734 105.9868  1.00268063 25027
YAMAL 601               
1 44307U 19031A   26062.82614198  .00000106  00000+0  00000+0 0  9992
2 44307   0.0097 130.2211 0002625 214.5578 163.1934  1.00272207 24861
AT&T T-16               
1 44333U 19034A   26062.56653395 -.00000129  00000+0  00000+0 0  9993
2 44333   0.0237 100.2971 0000711  64.4362  99.6581  1.00268498 24579
EUTELSAT 7C             
1 44334U 19034B   26062.80183520  .00000034  00000+0  00000+0 0  9993
2 44334   0.0725 180.8078 0003319 149.0283 127.3508  1.00270080  5772
BEIDOU-3 IGSO-2         
1 44337U 19035A   26057.68879618 -.00000176  00000+0  00000+0 0  9995
2 44337  55.2338 159.8353 0038734 206.4752 153.7223  1.00247364 24561
COSMOS 2539             
1 44457U 19048A   26062.30363437  .00000066  00000+0  00000+0 0  9991
2 44457   0.0156 114.2840 0000871 217.6638 310.3911  1.00273779 24164
EDRS-C                  
1 44475U 19049A   26062.75737498 -.00000276  00000+0  00000+0 0  9997
2 44475   0.0292 121.9203 0001298 223.5233 231.2128  1.00272337 24153
INTELSAT 39 (IS-39)     
1 44476U 19049B   26062.76481566  .00000000  00000+0  00000+0 0  9995
2 44476   0.0248 154.8860 0000640 355.3734 348.5518  1.00268938 24077
AMOS-17                 
1 44479U 19050A   26062.30458771  .00000094  00000+0  00000+0 0  9995
2 44479   0.0379 292.9023 0001629  43.0471 311.7420  1.00270450 24129
COSMOS 1897 DEB         
1 44572U 87096G   26062.41012252  .00000075  00000+0  00000+0 0  9995
2 44572  11.0154 327.0067 0023130 298.5587 258.8720  1.00472852 69921
LUCH DEB                
1 44582U 94082G   26062.49325725 -.00000234  00000+0  00000+0 0  9997
2 44582  14.6056 354.8526 0016574  88.2941 333.4870  1.00702816 45186
EUTELSAT 5 WEST B       
1 44624U 19067A   26062.79940852 -.00000056  00000+0  00000+0 0  9993
2 44624   0.0961 309.5325 0003204  41.5845  93.1887  1.00272501 23381
MEV-1                   
1 44625U 19067B   26057.83942429 -.00000160  00000+0  00000+0 0  9991
2 44625   0.8853 269.7923 0003215  58.4490 286.7172  1.00269845 60471
