[{"OBJECT_NAME":"WGS 10 (USA 291)","OBJECT_ID":"2019-014A","EPOCH":"2026-03-03T15:38:24.313920","MEAN_MOTION":1.00271796,"ECCENTRICITY":5.0e-5,"INCLINATION":0.0207,"RA_OF_ASC_NODE":128.2693,"ARG_OF_PERICENTER":227.7066,"MEAN_ANOMALY":100.3194,"EPHEMERIS_TYPE":0,"CLASSIFICATION_TYPE":"U","NORAD_CAT_ID":44071,"ELEMENT_SET_NO":999,"REV_AT_EPOCH":2555,"BSTAR":0,"MEAN_MOTION_DOT":3.3e-7,"MEAN_MOTION_DDOT":0},{"OBJECT_NAME":"TIANLIAN 2-01","OBJECT_ID":"2019-017A","EPOCH":"2026-03-03T19:34:36.647616","MEAN_MOTION":1.00271547,"ECCENTRICITY":0.0003375,"INCLINATION":0.2681,"RA_OF_ASC_NODE":82.2729,"ARG_OF_PERICENTER":220.5381,"MEAN_ANOMALY":229.4138,"EPHEMERIS_TYPE":0,"CLASSIFICATION_TYPE":"U","NORAD_CAT_ID":44076,"ELEMENT_SET_NO":999,"REV_AT_EPOCH":2559,"BSTAR":0,"MEAN_MOTION_DOT":-1.2e-6,"MEAN_MOTION_DDOT":0},{"OBJECT_NAME":"ARABSAT-6A","OBJECT_ID":"2019-021A","EPOCH":"2026-03-03T08:46:38.616672","MEAN_MOTION":1.00279906,"ECCENTRICITY":0.00030668,"INCLINATION":0.0169,"RA_OF_ASC_NODE":13.1563,"ARG_OF_PERICENTER":320.7917,"MEAN_ANOMALY":349.3814,"EPHEMERIS_TYPE":0,"CLASSIFICATION_TYPE":"U","NORAD_CAT_ID":44186,"ELEMENT_SET_NO":999,"REV_AT_EPOCH":2509,"BSTAR":0,"MEAN_MOTION_DOT":0,"MEAN_MOTION_DDOT":0},{"OBJECT_NAME":"BEIDOU-3 IGSO-1","OBJECT_ID":"2019-023A","EPOCH":"2026-03-03T19:46:48.267264","MEAN_MOTION":1.00271041,"ECCENTRICITY":0.0026008,"INCLINATION":58.5529,"RA_OF_ASC_NODE":38.7313,"ARG_OF_PERICENTER":236.5299,"MEAN_ANOMALY":302.2113,"EPHEMERIS_TYPE":0,"CLASSIFICATION_TYPE":"U","NORAD_CAT_ID":44204,"ELEMENT_SET_NO":999,"REV_AT_EPOCH":615,"BSTAR":0,"MEAN_MOTION_DOT":-2.06e-6,"MEAN_MOTION_DDOT":0},{"OBJECT_NAME":"BEIDOU-2 G8","OBJECT_ID":"2019-027A","EPOCH":"2026-03-03T09:37:45.541920","MEAN_MOTION":1.00268063,"ECCENTRICITY":0.00092717,"INCLINATION":1.8655,"RA_OF_ASC_NODE":74.73,"ARG_OF_PERICENTER":269.3734,"MEAN_ANOMALY":105.9868,"EPHEMERIS_TYPE":0,"CLASSIFICATION_TYPE":"U","NORAD_CAT_ID":44231,"ELEMENT_SET_NO":999,"REV_AT_EPOCH":2502,"BSTAR":0,"MEAN_MOTION_DOT":-2.62e-6,"MEAN_MOTION_DDOT":0},{"OBJECT_NAME":"YAMAL 601","OBJECT_ID":"2019-031A","EPOCH":"2026-03-03T19:49:38.667072","MEAN_MOTION":1.00272207,"ECCENTRICITY":0.0002625,"INCLINATION":0.0097,"RA_OF_ASC_NODE":130.2211,"ARG_OF_PERICENTER":214.5578,"MEAN_ANOMALY":163.1934,"EPHEMERIS_TYPE":0,"CLASSIFICATION_TYPE":"U","NORAD_CAT_ID":44307,"ELEMENT_SET_NO":999,"REV_AT_EPOCH":2486,"BSTAR":0,"MEAN_MOTION_DOT":1.06e-6,"MEAN_MOTION_DDOT":0},{"OBJECT_NAME":"AT&T T-16","OBJECT_ID":"2019-034A","EPOCH":"2026-03-03T13:35:48.533280","MEAN_MOTION":1.00268498,"ECCENTRICITY":7.11e-5,"INCLINATION":0.0237,"RA_OF_ASC_NODE":100.2971,"ARG_OF_PERICENTER":64.4362,"MEAN_ANOMALY":99.6581,"EPHEMERIS_TYPE":0,"CLASSIFICATION_TYPE":"U","NORAD_CAT_ID":44333,"ELEMENT_SET_NO":999,"REV_AT_EPOCH":2457,"BSTAR":0,"MEAN_MOTION_DOT":-1.29e-6,"MEAN_MOTION_DDOT":0},{"OBJECT_NAME":"EUTELSAT 7C","OBJECT_ID":"2019-034B","EPOCH":"2026-03-03T19:14:38.561280","MEAN_MOTION":1.0027008,"ECCENTRICITY":0.0003319,"INCLINATION":0.0725,"RA_OF_ASC_NODE":180.8078,"ARG_OF_PERICENTER":149.0283,"MEAN_ANOMALY":127.3508,"EPHEMERIS_TYPE":0,"CLASSIFICATION_TYPE":"U","NORAD_CAT_ID":44334,"ELEMENT_SET_NO":999,"REV_AT_EPOCH":577,"BSTAR":0,"MEAN_MOTION_DOT":3.4e-7,"MEAN_MOTION_DDOT":0},{"OBJECT_NAME":"BEIDOU-3 IGSO-2","OBJECT_ID":"2019-035A","EPOCH":"2026-02-26T16:31:51.989952","MEAN_MOTION":1.00247364,"ECCENTRICITY":0.00387345,"INCLINATION":55.2338,"RA_OF_ASC_NODE":159.8353,"ARG_OF_PERICENTER":206.4752,"MEAN_ANOMALY":153.7223,"EPHEMERIS_TYPE":0,"CLASSIFICATION_TYPE":"U","NORAD_CAT_ID":44337,"ELEMENT_SET_NO":999,"REV_AT_EPOCH":2456,"BSTAR":0,"MEAN_MOTION_DOT":-1.76e-6,"MEAN_MOTION_DDOT":0},{"OBJECT_NAME":"COSMOS 2539","OBJECT_ID":"2019-048A","EPOCH":"2026-03-03T07:17:14.009568","MEAN_MOTION":1.00273779,"ECCENTRICITY":8.71e-5,"INCLINATION":0.0156,"RA_OF_ASC_NODE":114.284,"ARG_OF_PERICENTER":217.6638,"MEAN_ANOMALY":310.3911,"EPHEMERIS_TYPE":0,"CLASSIFICATION_TYPE":"U","NORAD_CAT_ID":44457,"ELEMENT_SET_NO":999,"REV_AT_EPOCH":2416,"BSTAR":0,"MEAN_MOTION_DOT":6.6e-7,"MEAN_MOTION_DDOT":0},{"OBJECT_NAME":"EDRS-C","OBJECT_ID":"2019-049A","EPOCH":"2026-03-03T18:10:37.198272","MEAN_MOTION":1.00272337,"ECCENTRICITY":0.0001298,"INCLINATION":0.0292,"RA_OF_ASC_NODE":121.9203,"ARG_OF_PERICENTER":223.5233,"MEAN_ANOMALY":231.2128,"EPHEMERIS_TYPE":0,"CLASSIFICATION_TYPE":"U","NORAD_CAT_ID":44475,"ELEMENT_SET_NO":999,"REV_AT_EPOCH":2415,"BSTAR":0,"MEAN_MOTION_DOT":-2.76e-6,"MEAN_MOTION_DDOT":0},{"OBJECT_NAME":"INTELSAT 39 (IS-39)","OBJECT_ID":"2019-049B","EPOCH":"2026-03-03T18:21:20.073024","MEAN_MOTION":1.00268938,"ECCENTRICITY":6.4e-5,"INCLINATION":0.0248,"RA_OF_ASC_NODE":154.886,"ARG_OF_PERICENTER":355.3734,"MEAN_ANOMALY":348.5518,"EPHEMERIS_TYPE":0,"CLASSIFICATION_TYPE":"U","NORAD_CAT_ID":44476,"ELEMENT_SET_NO":999,"REV_AT_EPOCH":2407,"BSTAR":0,"MEAN_MOTION_DOT":0,"MEAN_MOTION_DDOT":0},{"OBJECT_NAME":"AMOS-17","OBJECT_ID":"2019-050A","EPOCH":"2026-03-03T07:18:36.378144","MEAN_MOTION":1.0027045,"ECCENTRICITY":0.00016297,"INCLINATION":0.0379,"RA_OF_ASC_NODE":292.9023,"ARG_OF_PERICENTER":43.0471,"MEAN_ANOMALY":311.742,"EPHEMERIS_TYPE":0,"CLASSIFICATION_TYPE":"U","NORAD_CAT_ID":44479,"ELEMENT_SET_NO":999,"REV_AT_EPOCH":2412,"BSTAR":0,"MEAN_MOTION_DOT":9.4e-7,"MEAN_MOTION_DDOT":0},{"OBJECT_NAME":"COSMOS 1897 DEB","OBJECT_ID":"1987-096G","EPOCH":"2026-03-03T09:50:34.585728","MEAN_MOTION":1.00472852,"ECCENTRICITY":0.00231304,"INCLINATION":11.0154,"RA_OF_ASC_NODE":327.0067,"ARG_OF_PERICENTER":298.5587,"MEAN_ANOMALY":258.872,"EPHEMERIS_TYPE":0,"CLASSIFICATION_TYPE":"U","NORAD_CAT_ID":44572,"ELEMENT_SET_NO":999,"REV_AT_EPOCH":6992,"BSTAR":0,"MEAN_MOTION_DOT":7.5e-7,"MEAN_MOTION_DDOT":0},{"OBJECT_NAME":"LUCH DEB","OBJECT_ID":"1994-082G","EPOCH":"2026-03-03T11:50:17.426400","MEAN_MOTION":1.00702816,"ECCENTRICITY":0.00165744,"INCLINATION":14.6056,"RA_OF_ASC_NODE":354.8526,"ARG_OF_PERICENTER":88.2941,"MEAN_ANOMALY":333.487,"EPHEMERIS_TYPE":0,"CLASSIFICATION_TYPE":"U","NORAD_CAT_ID":44582,"ELEMENT_SET_NO":999,"REV_AT_EPOCH":4518,"BSTAR":0,"MEAN_MOTION_DOT":-2.34e-6,"MEAN_MOTION_DDOT":0},{"OBJECT_NAME":"EUTELSAT 5 WEST B","OBJECT_ID":"2019-067A","EPOCH":"2026-03-03T19:11:08.896128","MEAN_MOTION":1.00272501,"ECCENTRICITY":0.0003204,"INCLINATION":0.0961,"RA_OF_ASC_NODE":309.5325,"ARG_OF_PERICENTER":41.5845,"MEAN_ANOMALY":93.1887,"EPHEMERIS_TYPE":0,"CLASSIFICATION_TYPE":"U","NORAD_CAT_ID":44624,"ELEMENT_SET_NO":999,"REV_AT_EPOCH":2338,"BSTAR":0,"MEAN_MOTION_DOT":-5.6e-7,"MEAN_MOTION_DDOT":0},{"OBJECT_NAME":"MEV-1","OBJECT_ID":"2019-067B","EPOCH":"2026-02-26T20:08:46.258656","MEAN_MOTION":1.00269845,"ECCENTRICITY":0.0003215,"INCLINATION":0.8853,"RA_OF_ASC_NODE":269.7923,"ARG_OF_PERICENTER":58.449,"MEAN_ANOMALY":286.7172,"EPHEMERIS_TYPE":0,"CLASSIFICATION_TYPE":"U","NORAD_CAT_ID":44625,"ELEMENT_SET_NO":999,"REV_AT_EPOCH":6047,"BSTAR":0,"MEAN_MOTION_DOT":-1.6e-6,"MEAN_MOTION_DDOT":0}]
